     2.100          NAVIGATION                              RINEX VERSION / TYPE
fic2rin                                 11/08/2011 00:09:56 PGM / RUN BY / DATE
                                                            END OF HEADER
 3 11 11  7 14  0  0.0  .791825819761D-03  .511590769747D-11  .000000000000D+00
     .137000000000D+03 -.150937500000D+02  .587167315018D-08  .143186177673D+01
    -.948086380959D-06  .149086131714D-01  .469572842121D-05  .515367697334D+04
     .136800000000D+06 -.342726707458D-06  .122901802800D+01 -.113621354103D-06
     .929382901237D+00  .276750000000D+03  .115442434863D+01 -.885001149564D-08
    -.903609067516D-10  .100000000000D+01  .166100000000D+04  .000000000000D+00
     .340000000000D+01  .000000000000D+00 -.465661287308D-08  .137000000000D+03
     .129606000000D+06  .400000000000D+01
 4 11 11  7 14  0  0.0  .283716712147D-03  .113686837722D-10  .000000000000D+00
     .260000000000D+02  .912500000000D+01  .486234539335D-08 -.183171021223D+01
     .387430191040D-06  .996238412336D-02  .103581696749D-04  .515373807907D+04
     .136800000000D+06  .132247805595D-06  .240718280286D+01 -.689178705215D-07
     .937995787541D+00  .166437500000D+03  .794331490204D+00 -.800390482333D-08
    -.288226291496D-09  .100000000000D+01  .166100000000D+04  .000000000000D+00
     .240000000000D+01  .000000000000D+00 -.651925802231D-08  .260000000000D+02
     .129606000000D+06  .400000000000D+01
 5 11 11  7 14  0  0.0 -.242089387029D-03 -.500222085975D-11  .000000000000D+00
     .940000000000D+02  .101593750000D+03  .468448084172D-08 -.303229976282D+01
     .523403286934D-05  .258731620852D-02  .658631324768D-05  .515379471779D+04
     .136800000000D+06  .428408384323D-07 -.283112506756D+01 -.931322574615D-08
     .953079115159D+00  .250437500000D+03  .190980845084D+00 -.824927218673D-08
     .254296306748D-09  .100000000000D+01  .166100000000D+04  .000000000000D+00
     .240000000000D+01  .000000000000D+00 -.102445483208D-07  .940000000000D+02
     .129606000000D+06  .400000000000D+01
 6 11 11  7 14  0  0.0 -.358633697033D-04  .613908923697D-11  .000000000000D+00
     .590000000000D+02 -.180625000000D+02  .556344602557D-08 -.288540248382D+01
    -.808387994766D-06  .668980553746D-02  .443682074547D-05  .515369718552D+04
     .136800000000D+06 -.521540641785D-07  .130404692843D+01  .949949026108D-07
     .936376997003D+00  .279656250000D+03 -.654003930529D+00 -.847642450568D-08
    -.116076263614D-09  .100000000000D+01  .166100000000D+04  .000000000000D+00
     .240000000000D+01  .000000000000D+00 -.512227416039D-08  .590000000000D+02
     .129606000000D+06  .400000000000D+01
 7 11 11  7 14  0  0.0  .360230915248D-04  .216004991671D-11  .000000000000D+00
     .650000000000D+02 -.652812500000D+02  .396445084958D-08 -.248540565284D+00
    -.334717333317D-05  .508987822104D-02  .979937613010D-05  .515363459587D+04
     .136800000000D+06  .782310962677D-07 -.722640616265D+00  .242143869400D-07
     .975427702113D+00  .197656250000D+03 -.303204092872D+01 -.783175479545D-08
     .178578867098D-11  .100000000000D+01  .166100000000D+04  .000000000000D+00
     .240000000000D+01  .000000000000D+00 -.111758708954D-07  .650000000000D+02
     .129606000000D+06  .400000000000D+01
 8 11 11  7 14  0  0.0  .568106770515D-07  .000000000000D+00  .000000000000D+00
     .890000000000D+02 -.506250000000D+02  .350193158379D-08 -.765922449116D+00
    -.273808836937D-05  .121569752228D-01  .102464109659D-04  .515373815536D+04
     .136800000000D+06  .244006514549D-06 -.643662461685D+00 -.109896063805D-06
     .997392729502D+00  .197031250000D+03 -.300667172168D+01 -.755531470918D-08
     .842892252703D-10  .100000000000D+01  .166100000000D+04  .000000000000D+00
     .240000000000D+01  .000000000000D+00 -.419095158577D-08  .890000000000D+02
     .129606000000D+06  .400000000000D+01
 9 11 11  7 14  0  0.0  .116810668260D-03  .250111042988D-11  .000000000000D+00
     .200000000000D+01 -.642500000000D+02  .382730227965D-08 -.913545241855D+00
    -.329315662384D-05  .171624720097D-01  .110361725092D-04  .515365930939D+04
     .136800000000D+06 -.223517417908D-06 -.749857500540D+00  .137835741043D-06
     .984242866100D+00  .185906250000D+03  .160123046490D+01 -.796711757671D-08
     .271439877989D-10  .100000000000D+01  .166100000000D+04  .000000000000D+00
     .340000000000D+01  .000000000000D+00 -.558793544769D-08  .258000000000D+03
     .129606000000D+06  .400000000000D+01
10 11 11  7 14  0  0.0 -.183880329132D-04 -.102318153949D-11  .000000000000D+00
     .370000000000D+02  .954062500000D+02  .470198157069D-08 -.270673274683D+01
     .491365790367D-05  .107078175060D-01  .629946589470D-05  .515364756966D+04
     .136800000000D+06  .465661287308D-07 -.280839952173D+01 -.782310962677D-07
     .947984043592D+00  .251718750000D+03  .714938788527D+00 -.812033824468D-08
     .293940815243D-09  .100000000000D+01  .166100000000D+04  .000000000000D+00
     .340000000000D+01  .000000000000D+00 -.279396772385D-08  .370000000000D+02
     .129606000000D+06  .400000000000D+01
11 11 11  7 14  0  0.0 -.201813876629D-03 -.352429196937D-11  .000000000000D+00
     .970000000000D+02 -.313750000000D+02  .638169439462D-08 -.628067026427D-01
    -.149011611938D-05  .125761741074D-01  .887550413609D-05  .515367062378D+04
     .136800000000D+06 -.670552253723D-07  .214431917971D+01  .171363353729D-06
     .887848750784D+00  .167718750000D+03  .996905958140D+00 -.907752097233D-08
    -.491449042254D-09  .100000000000D+01  .166100000000D+04  .000000000000D+00
     .240000000000D+01  .000000000000D+00 -.116415321827D-07  .970000000000D+02
     .129606000000D+06  .400000000000D+01
12 11 11  7 14  0  0.0  .332742929459D-04  .227373675443D-11  .000000000000D+00
     .130000000000D+02  .305000000000D+02  .440982654412D-08 -.413776154386D+00
     .163167715073D-05  .358821428381D-02  .829063355923D-05  .515362659836D+04
     .136800000000D+06  .763684511185D-07  .332276847750D+00 -.260770320892D-07
     .977452095466D+00  .230187500000D+03 -.682845101525D-01 -.796104589523D-08
     .579309844866D-09  .100000000000D+01  .166100000000D+04  .000000000000D+00
     .240000000000D+01  .000000000000D+00 -.121071934700D-07  .130000000000D+02
     .129606000000D+06  .400000000000D+01
13 11 11  7 14  0  0.0  .242684502155D-03 -.193267624127D-11  .000000000000D+00
     .520000000000D+02 -.438125000000D+02  .398909473324D-08  .219562542105D+01
    -.222958624363D-05  .456857704557D-02  .350363552570D-05  .515375755119D+04
     .136800000000D+06  .391155481339D-07 -.169563830758D+01  .335276126862D-07
     .987696392902D+00  .324718750000D+03  .195490422897D+01 -.796211736843D-08
    -.177507393895D-09  .100000000000D+01  .166100000000D+04  .000000000000D+00
     .240000000000D+01  .000000000000D+00 -.116415321827D-07  .520000000000D+02
     .129606000000D+06  .400000000000D+01
15 11 11  7 14  0  0.0 -.100064091384D-03  .113686837722D-11  .000000000000D+00
     .510000000000D+02 -.347812500000D+02  .503270963256D-08  .194453094166D+01
    -.174902379513D-05  .389527948573D-02  .258907675743D-05  .515371186256D+04
     .136800000000D+06 -.931322574615D-08 -.180220186282D+01  .670552253723D-07
     .947683829395D+00  .322781250000D+03 -.697775716588D-01 -.858821487648D-08
    -.193936649668D-09  .100000000000D+01  .166100000000D+04  .000000000000D+00
     .240000000000D+01  .000000000000D+00 -.102445483208D-07  .510000000000D+02
     .129606000000D+06  .400000000000D+01
16 11 11  7 14  0  0.0 -.207608100027D-03 -.204636307899D-11  .000000000000D+00
     .540000000000D+02  .316250000000D+02  .429160733410D-08 -.277453658160D+01
     .173784792423D-05  .615611067042D-02  .850483775139D-05  .515354876709D+04
     .136800000000D+06 -.128522515297D-06  .350262869626D+00 -.149011611938D-07
     .978368683863D+00  .227031250000D+03 -.731900870152D-01 -.775425156713D-08
     .540379651839D-09  .100000000000D+01  .166100000000D+04  .000000000000D+00
     .240000000000D+01  .000000000000D+00 -.977888703346D-08  .540000000000D+02
     .129606000000D+06  .400000000000D+01
17 11 11  7 14  0  0.0  .166943296790D-03 -.181898940355D-11  .000000000000D+00
     .880000000000D+02 -.285937500000D+02  .485555939640D-08  .262070997022D+01
    -.157207250595D-05  .674077728763D-02  .543147325516D-05  .515359171677D+04
     .136800000000D+06 -.689178705215D-07  .139205176155D+01 -.108033418655D-06
     .961453715515D+00  .274875000000D+03 -.240233016461D+01 -.810998067039D-08
    -.247153152064D-09  .100000000000D+01  .166100000000D+04  .000000000000D+00
     .340000000000D+01  .000000000000D+00 -.107102096081D-07  .880000000000D+02
     .129606000000D+06  .400000000000D+01
18 11 11  7 14  0  0.0  .165937934071D-03  .181898940355D-11  .000000000000D+00
     .300000000000D+02  .106937500000D+03  .504806741513D-08 -.222337148668D+01
     .551156699657D-05  .127438590862D-01  .621750950813D-05  .515364825249D+04
     .136800000000D+06  .100582838058D-06 -.281648924659D+01 -.163912773132D-06
     .931844203851D+00  .245812500000D+03 -.220636158665D+01 -.823069998455D-08
     .358229207399D-09  .100000000000D+01  .166100000000D+04  .000000000000D+00
     .240000000000D+01  .000000000000D+00 -.111758708954D-07  .300000000000D+02
     .129606000000D+06  .400000000000D+01
19 11 11  7 14  0  0.0 -.202407129109D-03 -.397903932026D-11  .000000000000D+00
     .130000000000D+02 -.323125000000D+02  .508378318855D-08  .184255059173D+01
    -.148639082909D-05  .765862851404D-02  .537000596523D-05  .515370984077D+04
     .136800000000D+06 -.372529029846D-08  .144565966749D+01  .167638063431D-06
     .958897646530D+00  .275875000000D+03  .128660467613D+00 -.833784730481D-08
    -.335728270144D-09  .100000000000D+01  .166100000000D+04  .000000000000D+00
     .240000000000D+01  .000000000000D+00 -.144354999065D-07  .130000000000D+02
     .129606000000D+06  .400000000000D+01
